CCSDS_OMM_VERS = 2.0
CREATION_DATE  = 
ORIGINATOR     = 

OBJECT_NAME    = IDEFIX & ARIANE 42P R/B
OBJECT_ID      = 2002-021B
CENTER_NAME    = EARTH
REF_FRAME      = TEME
TIME_SYSTEM    = UTC
MEAN_ELEMENT_THEORY = SGP/SGP4

EPOCH          = 2026-02-19T05:55:11.587296
MEAN_MOTION    = 14.31012179
ECCENTRICITY   = .00107185
INCLINATION    = 98.5854
RA_OF_ASC_NODE = 349.0755
ARG_OF_PERICENTER = 239.8144
MEAN_ANOMALY   = 120.1978

EPHEMERIS_TYPE = 0
CLASSIFICATION_TYPE = U
NORAD_CAT_ID   = 27422
ELEMENT_SET_NO = 999
REV_AT_EPOCH   = 24138
BSTAR          = .11610497E-3
MEAN_MOTION_DOT = .262E-5
MEAN_MOTION_DDOT = 0

CCSDS_OMM_VERS = 2.0
CREATION_DATE  = 
ORIGINATOR     = 

OBJECT_NAME    = AQUA
OBJECT_ID      = 2002-022A
CENTER_NAME    = EARTH
REF_FRAME      = TEME
TIME_SYSTEM    = UTC
MEAN_ELEMENT_THEORY = SGP/SGP4

EPOCH          = 2026-02-19T06:46:22.753056
MEAN_MOTION    = 14.61928523
ECCENTRICITY   = .00011161
INCLINATION    = 98.4142
RA_OF_ASC_NODE = 17.3169
ARG_OF_PERICENTER = 46.9088
MEAN_ANOMALY   = 59.3896

EPHEMERIS_TYPE = 0
CLASSIFICATION_TYPE = U
NORAD_CAT_ID   = 27424
ELEMENT_SET_NO = 999
REV_AT_EPOCH   = 26604
BSTAR          = .19932481E-3
MEAN_MOTION_DOT = .949E-5
MEAN_MOTION_DDOT = 0

CCSDS_OMM_VERS = 2.0
CREATION_DATE  = 
ORIGINATOR     = 

OBJECT_NAME    = CZ-4B R/B
OBJECT_ID      = 2002-024C
CENTER_NAME    = EARTH
REF_FRAME      = TEME
TIME_SYSTEM    = UTC
MEAN_ELEMENT_THEORY = SGP/SGP4

EPOCH          = 2026-02-19T02:38:20.629536
MEAN_MOTION    = 14.14544164
ECCENTRICITY   = .00511048
INCLINATION    = 98.8883
RA_OF_ASC_NODE = 103.6065
ARG_OF_PERICENTER = 76.2594
MEAN_ANOMALY   = 313.7725

EPHEMERIS_TYPE = 0
CLASSIFICATION_TYPE = U
NORAD_CAT_ID   = 27432
ELEMENT_SET_NO = 999
REV_AT_EPOCH   = 22661
BSTAR          = .43718873E-4
MEAN_MOTION_DOT = .41E-6
MEAN_MOTION_DDOT = 0

CCSDS_OMM_VERS = 2.0
CREATION_DATE  = 
ORIGINATOR     = 

OBJECT_NAME    = MIDORI II (ADEOS-II)
OBJECT_ID      = 2002-056A
CENTER_NAME    = EARTH
REF_FRAME      = TEME
TIME_SYSTEM    = UTC
MEAN_ELEMENT_THEORY = SGP/SGP4

EPOCH          = 2026-02-18T21:39:20.251872
MEAN_MOTION    = 14.29270306
ECCENTRICITY   = .00021138
INCLINATION    = 98.7737
RA_OF_ASC_NODE = 8.2542
ARG_OF_PERICENTER = 69.1137
MEAN_ANOMALY   = 291.0271

EPHEMERIS_TYPE = 0
CLASSIFICATION_TYPE = U
NORAD_CAT_ID   = 27597
ELEMENT_SET_NO = 999
REV_AT_EPOCH   = 20761
BSTAR          = .11821109E-3
MEAN_MOTION_DOT = .255E-5
MEAN_MOTION_DDOT = 0

CCSDS_OMM_VERS = 2.0
CREATION_DATE  = 
ORIGINATOR     = 

OBJECT_NAME    = H-2A R/B
OBJECT_ID      = 2002-056E
CENTER_NAME    = EARTH
REF_FRAME      = TEME
TIME_SYSTEM    = UTC
MEAN_ELEMENT_THEORY = SGP/SGP4

EPOCH          = 2026-02-19T07:17:25.536192
MEAN_MOTION    = 14.33747331
ECCENTRICITY   = .00693879
INCLINATION    = 98.3171
RA_OF_ASC_NODE = 11.3732
ARG_OF_PERICENTER = 215.6369
MEAN_ANOMALY   = 310.0755

EPHEMERIS_TYPE = 0
CLASSIFICATION_TYPE = U
NORAD_CAT_ID   = 27601
ELEMENT_SET_NO = 999
REV_AT_EPOCH   = 21147
BSTAR          = .10435737E-3
MEAN_MOTION_DOT = .256E-5
MEAN_MOTION_DDOT = 0

CCSDS_OMM_VERS = 2.0
CREATION_DATE  = 
ORIGINATOR     = 

OBJECT_NAME    = CZ-4B R/B
OBJECT_ID      = 2003-049C
CENTER_NAME    = EARTH
REF_FRAME      = TEME
TIME_SYSTEM    = UTC
MEAN_ELEMENT_THEORY = SGP/SGP4

EPOCH          = 2026-02-18T22:53:14.953920
MEAN_MOTION    = 14.54999451
ECCENTRICITY   = .0047068
INCLINATION    = 98.6860
RA_OF_ASC_NODE = 44.1264
ARG_OF_PERICENTER = 289.5051
MEAN_ANOMALY   = 70.1064

EPHEMERIS_TYPE = 0
CLASSIFICATION_TYPE = U
NORAD_CAT_ID   = 28059
ELEMENT_SET_NO = 999
REV_AT_EPOCH   = 18387
BSTAR          = .10404525E-3
MEAN_MOTION_DOT = .402E-5
MEAN_MOTION_DDOT = 0

CCSDS_OMM_VERS = 2.0
CREATION_DATE  = 
ORIGINATOR     = 

OBJECT_NAME    = CZ-2C R/B
OBJECT_ID      = 2004-012C
CENTER_NAME    = EARTH
REF_FRAME      = TEME
TIME_SYSTEM    = UTC
MEAN_ELEMENT_THEORY = SGP/SGP4

EPOCH          = 2026-02-19T02:39:23.743008
MEAN_MOTION    = 15.62280756
ECCENTRICITY   = .00147676
INCLINATION    = 97.7278
RA_OF_ASC_NODE = 113.6725
ARG_OF_PERICENTER = 22.5747
MEAN_ANOMALY   = 337.6156

EPHEMERIS_TYPE = 0
CLASSIFICATION_TYPE = U
NORAD_CAT_ID   = 28222
ELEMENT_SET_NO = 999
REV_AT_EPOCH   = 20137
BSTAR          = .49065007E-3
MEAN_MOTION_DOT = .43519E-3
MEAN_MOTION_DDOT = 0

CCSDS_OMM_VERS = 2.0
CREATION_DATE  = 
ORIGINATOR     = 

OBJECT_NAME    = SL-16 R/B
OBJECT_ID      = 2004-021B
CENTER_NAME    = EARTH
REF_FRAME      = TEME
TIME_SYSTEM    = UTC
MEAN_ELEMENT_THEORY = SGP/SGP4

EPOCH          = 2026-02-19T01:43:20.647200
MEAN_MOTION    = 14.14596233
ECCENTRICITY   = .0003233
INCLINATION    = 70.9990
RA_OF_ASC_NODE = 271.5660
ARG_OF_PERICENTER = 54.0365
MEAN_ANOMALY   = 306.1057

EPHEMERIS_TYPE = 0
CLASSIFICATION_TYPE = U
NORAD_CAT_ID   = 28353
ELEMENT_SET_NO = 999
REV_AT_EPOCH   = 12020
BSTAR          = .18447402E-3
MEAN_MOTION_DOT = .307E-5
MEAN_MOTION_DDOT = 0

CCSDS_OMM_VERS = 2.0
CREATION_DATE  = 
ORIGINATOR     = 

OBJECT_NAME    = CZ-4B R/B
OBJECT_ID      = 2004-035C
CENTER_NAME    = EARTH
REF_FRAME      = TEME
TIME_SYSTEM    = UTC
MEAN_ELEMENT_THEORY = SGP/SGP4

EPOCH          = 2026-02-19T03:00:18.657216
MEAN_MOTION    = 15.28702286
ECCENTRICITY   = .00332996
INCLINATION    = 97.3524
RA_OF_ASC_NODE = 84.5926
ARG_OF_PERICENTER = 37.3688
MEAN_ANOMALY   = 322.9859

EPHEMERIS_TYPE = 0
CLASSIFICATION_TYPE = U
NORAD_CAT_ID   = 28415
ELEMENT_SET_NO = 999
REV_AT_EPOCH   = 17707
BSTAR          = .24817293E-3
MEAN_MOTION_DOT = .6964E-4
MEAN_MOTION_DDOT = 0

CCSDS_OMM_VERS = 2.0
CREATION_DATE  = 
ORIGINATOR     = 

OBJECT_NAME    = CZ-2C R/B
OBJECT_ID      = 2004-046B
CENTER_NAME    = EARTH
REF_FRAME      = TEME
TIME_SYSTEM    = UTC
MEAN_ELEMENT_THEORY = SGP/SGP4

EPOCH          = 2026-02-19T04:25:39.652608
MEAN_MOTION    = 14.26985274
ECCENTRICITY   = .01387301
INCLINATION    = 98.1994
RA_OF_ASC_NODE = 326.3186
ARG_OF_PERICENTER = 209.1937
MEAN_ANOMALY   = 150.1440

EPHEMERIS_TYPE = 0
CLASSIFICATION_TYPE = U
NORAD_CAT_ID   = 28480
ELEMENT_SET_NO = 999
REV_AT_EPOCH   = 10586
BSTAR          = .55764346E-4
MEAN_MOTION_DOT = .109E-5
MEAN_MOTION_DDOT = 0

CCSDS_OMM_VERS = 2.0
CREATION_DATE  = 
ORIGINATOR     = 

OBJECT_NAME    = ARIANE 5 R/B
OBJECT_ID      = 2004-049H
CENTER_NAME    = EARTH
REF_FRAME      = TEME
TIME_SYSTEM    = UTC
MEAN_ELEMENT_THEORY = SGP/SGP4

EPOCH          = 2026-02-19T00:55:50.998080
MEAN_MOTION    = 14.85227616
ECCENTRICITY   = .00851607
INCLINATION    = 98.2595
RA_OF_ASC_NODE = 217.8017
ARG_OF_PERICENTER = 52.1175
MEAN_ANOMALY   = 308.7702

EPHEMERIS_TYPE = 0
CLASSIFICATION_TYPE = U
NORAD_CAT_ID   = 28499
ELEMENT_SET_NO = 999
REV_AT_EPOCH   = 14302
BSTAR          = .92656415E-4
MEAN_MOTION_DOT = .783E-5
MEAN_MOTION_DDOT = 0

CCSDS_OMM_VERS = 2.0
CREATION_DATE  = 
ORIGINATOR     = 

OBJECT_NAME    = CZ-2D R/B
OBJECT_ID      = 2005-024B
CENTER_NAME    = EARTH
REF_FRAME      = TEME
TIME_SYSTEM    = UTC
MEAN_ELEMENT_THEORY = SGP/SGP4

EPOCH          = 2026-02-19T00:48:53.763840
MEAN_MOTION    = 15.58423060
ECCENTRICITY   = .0007622
INCLINATION    = 97.3603
RA_OF_ASC_NODE = 64.5209
ARG_OF_PERICENTER = 91.2238
MEAN_ANOMALY   = 268.9891

EPHEMERIS_TYPE = 0
CLASSIFICATION_TYPE = U
NORAD_CAT_ID   = 28738
ELEMENT_SET_NO = 999
REV_AT_EPOCH   = 13687
BSTAR          = .45378112E-3
MEAN_MOTION_DOT = .34562E-3
MEAN_MOTION_DDOT = 0

