IDEFIX & ARIANE 42P R/B 
1 27422U 02021B   26050.24666189  .00000262  00000+0  11610-3 0  9998
2 27422  98.5854 349.0755 0010718 239.8144 120.1978 14.31012179241384
AQUA                    
1 27424U 02022A   26050.28220779  .00000949  00000+0  19932-3 0  9993
2 27424  98.4142  17.3169 0001116  46.9088  59.3896 14.61928523266049
CZ-4B R/B               
1 27432U 02024C   26050.10996099  .00000041  00000+0  43719-4 0  9994
2 27432  98.8883 103.6065 0051104  76.2594 313.7725 14.14544164226618
MIDORI II (ADEOS-II)    
1 27597U 02056A   26049.90231773  .00000255  00000+0  11821-3 0  9993
2 27597  98.7737   8.2542 0002113  69.1137 291.0271 14.29270306207610
H-2A R/B                
1 27601U 02056E   26050.30376778  .00000256  00000+0  10436-3 0  9992
2 27601  98.3171  11.3732 0069387 215.6369 310.0755 14.33747331211471
CZ-4B R/B               
1 28059U 03049C   26049.95364530  .00000402  00000+0  10405-3 0  9994
2 28059  98.6860  44.1264 0047068 289.5051  70.1064 14.54999451183875
CZ-2C R/B               
1 28222U 04012C   26050.11069147  .00043519  00000+0  49065-3 0  9993
2 28222  97.7278 113.6725 0014767  22.5747 337.6156 15.62280756201371
SL-16 R/B               
1 28353U 04021B   26050.07176675  .00000307  00000+0  18447-3 0  9996
2 28353  70.9990 271.5660 0003233  54.0365 306.1057 14.14596233120203
CZ-4B R/B               
1 28415U 04035C   26050.12521594  .00006964  00000+0  24817-3 0  9993
2 28415  97.3524  84.5926 0033299  37.3688 322.9859 15.28702286177078
CZ-2C R/B               
1 28480U 04046B   26050.18448672  .00000109  00000+0  55764-4 0  9999
2 28480  98.1994 326.3186 0138730 209.1937 150.1440 14.26985274105869
ARIANE 5 R/B            
1 28499U 04049H   26050.03878470  .00000783  00000+0  92656-4 0  9998
2 28499  98.2595 217.8017 0085160  52.1175 308.7702 14.85227616143028
CZ-2D R/B               
1 28738U 05024B   26050.03395560  .00034562  00000+0  45378-3 0  9992
2 28738  97.3603  64.5209 0007622  91.2238 268.9891 15.58423060136878
